ONEWEB-0340             
1 49206U 21083W   24330.36398193 -.00000033  00000+0 -11638-3 0  9998
2 49206  87.9105  88.6357 0001594 100.9605 259.1706 13.18685622155003
ONEWEB-0341             
1 49207U 21083X   24330.37188513  .00000289  00000+0  69986-3 0  9993
2 49207  87.9099  88.6457 0001031 117.4316 242.6921 13.18685686155023
ONEWEB-0342             
1 49208U 21083Y   24330.19008860 -.00000348  00000+0 -88827-3 0  9993
2 49208  87.9272  27.6598 0001862  96.1717 263.9628 13.20771555161678
ONEWEB-0343             
1 49209U 21083Z   24330.36714554  .00000242  00000+0  58077-3 0  9992
2 49209  87.9093  88.6441 0000958  96.9037 263.2204 13.18686535155072
ONEWEB-0344             
1 49210U 21083AA  24330.35094787  .00000246  00000+0  63962-3 0  9995
2 49210  87.8932  73.4001 0001456 119.1317 240.9958 13.13470912156223
ONEWEB-0345             
1 49211U 21083AB  24330.36841419  .00000268  00000+0  69816-3 0  9997
2 49211  87.8930  73.3676 0001439 122.8769 237.2498 13.13468268156232
ONEWEB-0346             
1 49212U 21083AC  24330.37661485 -.00000396  00000+0 -10384-2 0  9991
2 49212  87.9103  88.6540 0001942 110.2096 249.9245 13.18685046155013
ONEWEB-0348             
1 49213U 21083AD  24330.18065176  .00000126  00000+0  27894-3 0  9990
2 49213  87.9280  27.6485 0002074 119.0607 241.0734 13.20772272161703
